NORAD_CAT_ID,OBJECT_NAME,OBJECT_TYPE,EPOCH,MEAN_MOTION,ECCENTRICITY,INCLINATION,RA_OF_ASC_NODE,ARG_OF_PERICENTER,MEAN_ANOMALY,BSTAR,MEAN_MOTION_DOT,MEAN_MOTION_DDOT,TLE_LINE0,TLE_LINE1,TLE_LINE2,SEMIMAJOR_AXIS,PERIOD,APOGEE,PERIGEE,DECAYED
53138.0,STARLINK-4141,PAYLOAD,2022-08-16 22:00:00,15.73218542,0.0002863999999999,53.2156,256.2625,14.4786,96.245,0.00011152,0.00015072,0.0,0 STARLINK-4141,1 53138U 22083G   22228.91667824  .00015072  00000-0  11152-3 0  9992,2 53138  53.2156 256.2625 0002864  14.4786  96.2450 15.73218542  1300,6727.842,91.532,351.634,347.78,0.0
53138.0,STARLINK-4141,PAYLOAD,2022-08-17 12:00:00,15.73207424,0.0003238,53.2165,253.3805,16.9378,159.4541,1.6855e-05,1.744e-05,0.0,0 STARLINK-4141,1 53138U 22083G   22229.50001157  .00001744  00000-0  16855-4 0  9996,2 53138  53.2165 253.3805 0003238  16.9378 159.4541 15.73207424  5526,6727.874,91.533,351.917,347.561,0.0
53138.0,STARLINK-4141,PAYLOAD,2022-08-17 14:00:01,15.73254247,0.0003227,53.2163,252.9685,14.6406,273.9741,-0.00081796,-0.00114178,0.0,0 STARLINK-4141,1 53138U 22083G   22229.58334491 -.00114178  00000-0 -81796-3 0  9997,2 53138  53.2163 252.9685 0003227  14.6406 273.9741 15.73254247  1301,6727.741,91.53,351.777,347.434,0.0
53138.0,STARLINK-4141,PAYLOAD,2022-08-17 16:00:00,15.73231887,0.0003163,53.2157,252.5522,16.0941,24.7621,-0.00048392,-0.00068104,0.0,0 STARLINK-4141,1 53138U 22083G   22229.66667824 -.00068104  00000-0 -48392-3 0  9997,2 53138  53.2157 252.5522 0003163  16.0941  24.7621 15.73231887  5543,6727.804,91.531,351.797,347.541,0.0
53138.0,STARLINK-4141,PAYLOAD,2022-08-18 06:00:02,15.73240514,0.0003071,53.2157,249.6655,17.4157,89.1477,0.00013435,0.0001831,0.0,0 STARLINK-4141,1 53138U 22083G   22230.25002315  .00018310  00000-0  13435-3 0  9994,2 53138  53.2157 249.6655 0003071  17.4157  89.1477 15.73240514  5630,6727.78,91.531,351.711,347.579,0.0
53138.0,STARLINK-4141,PAYLOAD,2022-08-18 14:00:01,15.73278656,0.0003126,53.2153,248.0167,13.8762,181.6022,-0.00044078,-0.00062254,0.0,0 STARLINK-4141,1 53138U 22083G   22230.58334491 -.00062254  00000-0 -44078-3 0  9998,2 53138  53.2153 248.0167 0003126  13.8762 181.6022 15.73278656  1302,6727.670999999999,91.529,351.639,347.43300000000005,0.0
53138.0,STARLINK-4141,PAYLOAD,2022-08-18 22:00:00,15.73191887,0.000285,53.2156,246.3649,10.982,273.5062,0.00025245,0.00034948,0.0,0 STARLINK-4141,1 53138U 22083G   22230.91667824  .00034948  00000-0  25245-3 0  9996,2 53138  53.2156 246.3649 0002850  10.9820 273.5062 15.73191887  5744,6727.918000000002,91.534,351.701,347.866,0.0
53138.0,STARLINK-4141,PAYLOAD,2022-08-19 14:00:01,15.73240279,0.0003026,53.2171,243.0727,9.119,93.2298,-0.0044715,-0.00587556,0.0,0 STARLINK-4141,1 53138U 22083G   22231.58334491 -.00587556  00000-0 -44715-2 0  9993,2 53138  53.2171 243.0727 0003026   9.1190  93.2298 15.73240279  5847,6727.78,91.531,351.681,347.61,0.0
53138.0,STARLINK-4141,PAYLOAD,2022-08-19 22:00:00,15.73077338,0.0002966,53.2177,241.4242,10.9049,180.1032,-0.007993,-0.0100961,0.0,0 STARLINK-4141,1 53138U 22083G   22231.91667824 -.01009610  00000-0 -79930-2 0  9997,2 53138  53.2177 241.4242 0002966  10.9049 180.1032 15.73077338  1305,6728.245,91.54,352.106,348.11400000000015,0.0
53138.0,STARLINK-4141,PAYLOAD,2022-08-20 04:00:00,15.72539386,0.000329,53.2176,240.1886,8.3202,159.024,-0.0085861,-0.01054887,0.0,0 STARLINK-4141,1 53138U 22083G   22232.16667824 -.01054887  00000-0 -85861-2 0  9991,2 53138  53.2176 240.1886 0003290   8.3202 159.0240 15.72539386  5942,6729.779,91.572,353.858,349.43,0.0
53138.0,STARLINK-4141,PAYLOAD,2022-08-20 14:00:01,15.71589853,0.0002611,53.2171,238.1317,10.6762,356.1099,-0.008939,-0.01054235,0.0,0 STARLINK-4141,1 53138U 22083G   22232.58334491 -.01054235  00000-0 -89390-2 0  9996,2 53138  53.2171 238.1317 0002611  10.6762 356.1099 15.71589853  1307,6732.49,91.627,356.11300000000006,352.597,0.0
53138.0,STARLINK-4141,PAYLOAD,2022-08-20 22:00:00,15.7083362,0.0002935,53.2172,236.4853,355.9184,97.3951,-0.0092947999999999,-0.01060974,0.0,0 STARLINK-4141,1 53138U 22083G   22232.91667824 -.01060974  00000-0 -92948-2 0  9992,2 53138  53.2172 236.4853 0002935 355.9184  97.3951 15.70833620  1300,6734.65,91.671,358.492,354.539,0.0
53138.0,STARLINK-4141,PAYLOAD,2022-08-21 14:00:01,15.69306074,3.48e-05,53.2172,233.2038,3.2919,260.3404,-0.0097582,-0.01045258,0.0,0 STARLINK-4141,1 53138U 22083G   22233.58334491 -.01045258  00000-0 -97582-2 0  9994,2 53138  53.2172 233.2038 0000348   3.2919 260.3404 15.69306074  1306,6739.02,91.76,361.119,360.65,0.0
53138.0,STARLINK-4141,PAYLOAD,2022-08-21 20:00:01,15.68738637,0.0001177,53.2176,231.9731,53.6019,182.9571,-0.01002,-0.01048225,0.0,0 STARLINK-4141,1 53138U 22083G   22233.83334491 -.01048225  00000-0 -10020-1 0  9990,2 53138  53.2176 231.9731 0001177  53.6019 182.9571 15.68738637  6207,6740.645,91.793,363.30300000000005,361.716,0.0
53138.0,STARLINK-4141,PAYLOAD,2022-08-21 22:00:00,15.6854911,0.0001147999999999,53.2175,231.5633,51.5849,295.836,-0.010116,-0.01049793,0.0,0 STARLINK-4141,1 53138U 22083G   22233.91667824 -.01049793  00000-0 -10116-1 0  9995,2 53138  53.2175 231.5633 0001148  51.5849 295.8360 15.68549110  1301,6741.188,91.805,363.827,362.279,0.0
53138.0,STARLINK-4141,PAYLOAD,2022-08-22 12:00:00,15.67221397,0.0001097999999999,53.217,228.702,58.2542,343.5991,-0.010685,-0.01049785,0.0,0 STARLINK-4141,1 53138U 22083G   22234.50001157 -.01049785  00000-0 -10685-1 0  9994,2 53138  53.2170 228.7020 0001098  58.2542 343.5991 15.67221397  6301,6744.995,91.882,367.6,366.119,0.0
53138.0,STARLINK-4141,PAYLOAD,2022-08-22 22:00:00,15.66271628,0.0001254,53.2172,226.6581,65.4932,167.8182,-0.01111,-0.01050077,0.0,0 STARLINK-4141,1 53138U 22083G   22234.91667824 -.01050077  00000-0 -11110-1 0  9998,2 53138  53.2172 226.6581 0001254  65.4932 167.8182 15.66271628  1304,6747.721,91.938,370.432,368.74,0.0
53138.0,STARLINK-4141,PAYLOAD,2022-08-23 04:00:00,15.65699037,0.0001389,53.2173,225.4357,56.5038,146.9972,-0.011308,-0.01044903,0.0,0 STARLINK-4141,1 53138U 22083G   22235.16667824 -.01044903  00000-0 -11308-1 0  9996,2 53138  53.2173 225.4357 0001389  56.5038 146.9972 15.65699037  6419,6749.366,91.972,372.169,370.294,0.0
53138.0,STARLINK-4141,PAYLOAD,2022-08-23 14:00:01,15.64753437,0.0001142,53.2173,223.3988,54.4575,338.2167,-0.011815,-0.01050254,0.0,0 STARLINK-4141,1 53138U 22083G   22235.58334491 -.01050254  00000-0 -11815-1 0  9992,2 53138  53.2173 223.3988 0001142  54.4575 338.2167 15.64753437  1305,6752.085,92.027,374.721,373.179,0.0
53138.0,STARLINK-4141,PAYLOAD,2022-08-23 20:00:01,15.64181403,0.0001095999999999,53.2173,222.1763,56.7535,304.743,-0.012047,-0.01046995,0.0,0 STARLINK-4141,1 53138U 22083G   22235.83334491 -.01046995  00000-0 -12047-1 0  9995,2 53138  53.2173 222.1763 0001096  56.7535 304.7430 15.64181403  6519,6753.731,92.061,376.336,374.856,0.0
53138.0,STARLINK-4141,PAYLOAD,2022-08-23 22:00:01,15.6399309,0.0001289,53.2175,221.7693,57.1835,53.8702,-0.012165,-0.01049164,0.0,0 STARLINK-4141,1 53138U 22083G   22235.91668981 -.01049164  00000-0 -12165-1 0  9990,2 53138  53.2175 221.7693 0001289  57.1835  53.8702 15.63993090  1308,6754.273,92.072,377.009,375.268,0.0
53138.0,STARLINK-4141,PAYLOAD,2022-08-24 04:00:00,15.64228082,0.0001571999999999,53.2145,220.5433,66.5248,13.0727,-9.8463e-05,-0.00010086,0.0,0 STARLINK-4141,1 53138U 22083G   22236.16667824 -.00010086  00000-0 -98463-4 0  9991,2 53138  53.2145 220.5433 0001572  66.5248  13.0727 15.64228082  6562,6753.597,92.058,376.523,374.4,0.0
53138.0,STARLINK-4141,PAYLOAD,2022-08-24 14:00:01,15.62475932,0.0001375,53.2172,218.5209,49.1993,215.676,-0.012953,-0.01068136,0.0,0 STARLINK-4141,1 53138U 22083G   22236.58334491 -.01068136  00000-0 -12953-1 0  9995,2 53138  53.2172 218.5209 0001375  49.1993 215.6760 15.62475932  1305,6758.645,92.161,381.439,379.58,0.0
53138.0,STARLINK-4141,PAYLOAD,2022-08-24 22:00:00,15.61713054,0.0001341,53.2175,216.8974,44.4689,295.9831,-0.013262,-0.01061993,0.0,0 STARLINK-4141,1 53138U 22083G   22236.91667824 -.01061993  00000-0 -13262-1 0  9999,2 53138  53.2175 216.8974 0001341  44.4689 295.9831 15.61713054  1300,6760.846,92.206,383.617,381.804,0.0
53138.0,STARLINK-4141,PAYLOAD,2022-08-25 12:00:00,15.60385848,0.0001437,53.217,214.0649,38.2278,342.2827,-0.013991,-0.01063918,0.0,0 STARLINK-4141,1 53138U 22083G   22237.50001157 -.01063918  00000-0 -13991-1 0  9994,2 53138  53.2170 214.0649 0001437  38.2278 342.2827 15.60385848  6777,6764.679,92.285,387.516,385.572,0.0
53138.0,STARLINK-4141,PAYLOAD,2022-08-25 14:00:01,15.60195475,0.0001554,53.2172,213.6598,42.1577,86.7055,-0.014093,-0.01063871,0.0,0 STARLINK-4141,1 53138U 22083G   22237.58334491 -.01063871  00000-0 -14093-1 0  9994,2 53138  53.2172 213.6598 0001554  42.1577  86.7055 15.60195475  1305,6765.229,92.296,388.145,386.043,0.0
53138.0,STARLINK-4141,PAYLOAD,2022-08-25 22:00:00,15.59435589,0.0001518,53.2173,212.042,49.0924,152.6081,-0.014484,-0.0106206,0.0,0 STARLINK-4141,1 53138U 22083G   22237.91667824 -.01062060  00000-0 -14484-1 0  9993,2 53138  53.2173 212.0420 0001518  49.0924 152.6081 15.59435589  1308,6767.426,92.341,390.319,388.264,0.0
53138.0,STARLINK-4141,PAYLOAD,2022-08-26 06:00:00,15.58676856,0.0001647,53.2173,210.4293,39.124,234.4997,-0.014939,-0.01063967,0.0,0 STARLINK-4141,1 53138U 22083G   22238.25001157 -.01063967  00000-0 -14939-1 0  9994,2 53138  53.2173 210.4293 0001647  39.1240 234.4997 15.58676856  6899,6769.621999999999,92.386,392.602,390.37300000000016,0.0
53138.0,STARLINK-4141,PAYLOAD,2022-08-26 14:00:01,15.57917949,0.0001329,53.2174,208.8151,43.3393,301.3618,-0.015393,-0.01064941,0.0,0 STARLINK-4141,1 53138U 22083G   22238.58335648 -.01064941  00000-0 -15393-1 0  9993,2 53138  53.2174 208.8151 0001329  43.3393 301.3618 15.57917949  1302,6771.821,92.431,394.586,392.786,0.0
